[
    {
        "CCSDS_OMM_VERS": "3.0",
        "COMMENT": "GENERATED VIA SPACE-TRACK.ORG API",
        "CREATION_DATE": "2025-04-14T03:05:54",
        "ORIGINATOR": "18 SPCS",
        "OBJECT_NAME": "GALILEO 19 (2C5)",
        "OBJECT_ID": "2017-079A",
        "CENTER_NAME": "EARTH",
        "REF_FRAME": "TEME",
        "TIME_SYSTEM": "UTC",
        "MEAN_ELEMENT_THEORY": "SGP4",
        "EPOCH": "2025-04-13T15:17:42.847008",
        "MEAN_MOTION": "1.70474781",
        "ECCENTRICITY": "0.00006020",
        "INCLINATION": "55.2182",
        "RA_OF_ASC_NODE": "233.3250",
        "ARG_OF_PERICENTER": "254.8797",
        "MEAN_ANOMALY": "105.0686",
        "EPHEMERIS_TYPE": "0",
        "CLASSIFICATION_TYPE": "U",
        "NORAD_CAT_ID": "43055",
        "ELEMENT_SET_NO": "999",
        "REV_AT_EPOCH": "4566",
        "BSTAR": "0.00000000000000",
        "MEAN_MOTION_DOT": "-0.00000013",
        "MEAN_MOTION_DDOT": "0.0000000000000",
        "SEMIMAJOR_AXIS": "29600.230",
        "PERIOD": "844.700",
        "APOAPSIS": "23223.877",
        "PERIAPSIS": "23220.313",
        "OBJECT_TYPE": "PAYLOAD",
        "RCS_SIZE": "LARGE",
        "COUNTRY_CODE": "ESA",
        "LAUNCH_DATE": "2017-12-12",
        "SITE": "FRGUI",
        "DECAY_DATE": null,
        "FILE": "4701263",
        "GP_ID": "285538833",
        "TLE_LINE0": "0 GALILEO 19 (2C5)",
        "TLE_LINE1": "1 43055U 17079A   25103.63730147 -.00000013  00000-0  00000-0 0  9998",
        "TLE_LINE2": "2 43055  55.2182 233.3250 0000602 254.8797 105.0686  1.70474781 45666"
    }
]